NORAD_CAT_ID,OBJECT_NAME,OBJECT_TYPE,EPOCH,MEAN_MOTION,ECCENTRICITY,INCLINATION,RA_OF_ASC_NODE,ARG_OF_PERICENTER,MEAN_ANOMALY,BSTAR,MEAN_MOTION_DOT,MEAN_MOTION_DDOT,TLE_LINE0,TLE_LINE1,TLE_LINE2,SEMIMAJOR_AXIS,PERIOD,APOGEE,PERIGEE,DECAYED
53183.0,STARLINK-4268,PAYLOAD,2022-07-21 18:00:00,15.8958705,0.0038847,53.2173,26.5817,51.1705,54.1013,-0.004084,-0.01310281,0.00048857,0 STARLINK-4268,1 53183U 22083BD  22202.75001157 -.01310281  48857-3 -40840-2 0  9990,2 53183  53.2173  26.5817 0038847  51.1705  54.1013 15.89587050  1307,6681.5769999999975,90.59,329.398,277.486,0.0
53183.0,STARLINK-4268,PAYLOAD,2022-07-22 06:00:00,15.88267938,0.0033049,53.2177,24.048,52.43899999999999,34.6004,-0.0044449,-0.01307938,0.00048103,0 STARLINK-4268,1 53183U 22083BD  22203.25001157 -.01307938  48103-3 -44449-2 0  9994,2 53183  53.2177  24.0480 0033049  52.4390  34.6004 15.88267938  1372,6685.276,90.665,329.235,285.047,0.0
53183.0,STARLINK-4268,PAYLOAD,2022-07-22 12:00:00,15.87608928,0.0030344,53.2177,22.783,51.8763,25.1553,-0.0046286,-0.01307539,0.00047785,0 STARLINK-4268,1 53183U 22083BD  22203.50001157 -.01307539  47785-3 -46286-2 0  9995,2 53183  53.2177  22.7830 0030344  51.8763  25.1553 15.87608928  1414,6687.126,90.702,329.282,288.699,0.0
53183.0,STARLINK-4268,PAYLOAD,2022-07-22 20:00:01,15.86756956,0.0026894,53.2175,21.1014,50.897,131.8562,-0.0050815,-0.01363429,0.00051174,0 STARLINK-4268,1 53183U 22083BD  22203.83334491 -.01363429  51174-3 -50815-2 0  9991,2 53183  53.2175  21.1014 0026894  50.8970 131.8562 15.86756956  1478,6689.519,90.751,329.375,293.393,0.0
53183.0,STARLINK-4268,PAYLOAD,2022-07-22 22:00:00,15.86546555,0.002566,53.2174,20.681,51.7618,247.2562,-0.0052283,-0.01384232,0.00052507,0 STARLINK-4268,1 53183U 22083BD  22203.91667824 -.01384232  52507-3 -52283-2 0  9996,2 53183  53.2174  20.6810 0025660  51.7618 247.2562 15.86546555  1300,6690.111,90.763,329.142,294.809,0.0
53183.0,STARLINK-4268,PAYLOAD,2022-07-23 14:00:01,15.84767122,0.0019573,53.2177,17.3187,51.1794,95.6813,-0.0055728999999999,-0.01182626,0.0,0 STARLINK-4268,1 53183U 22083BD  22204.58335648 -.01182626  00000-0 -55729-2 0  9995,2 53183  53.2177  17.3187 0019573  51.1794  95.6813 15.84767122  1305,6695.118,90.865,330.087,303.878,0.0
53183.0,STARLINK-4268,PAYLOAD,2022-07-23 22:00:00,15.83911887,0.0016396,53.2176,15.6436,52.6677,196.4178,-0.0060523999999999,-0.01242441,0.0,0 STARLINK-4268,1 53183U 22083BD  22204.91667824 -.01242441  00000-0 -60524-2 0  9997,2 53183  53.2176  15.6436 0016396  52.6677 196.4178 15.83911887  1300,6697.526999999999,90.914,330.374,308.411,0.0
53183.0,STARLINK-4268,PAYLOAD,2022-07-24 04:00:00,15.83256401,0.00137,53.2174,14.3858,50.5034,184.6138,-0.0062992,-0.01246904,0.0,0 STARLINK-4268,1 53183U 22083BD  22205.16667824 -.01246904  00000-0 -62992-2 0  9994,2 53183  53.2174  14.3858 0013700  50.5034 184.6138 15.83256401  1682,6699.376,90.952,330.4190000000001,312.063,0.0
53183.0,STARLINK-4268,PAYLOAD,2022-07-24 14:00:01,15.82123208,0.0009673,53.2175,12.2948,44.063,46.4656,-0.0063156,-0.0118538,0.0,0 STARLINK-4268,1 53183U 22083BD  22205.58334491 -.01185380  00000-0 -63156-2 0  9994,2 53183  53.2175  12.2948 0009673  44.0630  46.4656 15.82123208  1300,6702.574000000001,91.017,330.923,317.956,0.0
53183.0,STARLINK-4268,PAYLOAD,2022-07-24 22:00:00,15.81260728,0.000701,53.2173,10.626,39.3762,150.2774,-0.006754,-0.01210767,0.0,0 STARLINK-4268,1 53183U 22083BD  22205.91667824 -.01210767  00000-0 -67540-2 0  9999,2 53183  53.2173  10.6260 0007010  39.3762 150.2774 15.81260728  1306,6705.011,91.067,331.577,322.176,0.0
53183.0,STARLINK-4268,PAYLOAD,2022-07-25 14:00:01,15.79504413,0.0003833999999999,53.2178,7.2901,4.776,19.9733,-0.007351,-0.0121141,0.0,0 STARLINK-4268,1 53183U 22083BD  22206.58334491 -.01211410  00000-0 -73510-2 0  9994,2 53183  53.2178   7.2901 0003834   4.7760  19.9733 15.79504413  1900,6709.981,91.168,334.418,329.273,0.0
53183.0,STARLINK-4268,PAYLOAD,2022-07-25 22:00:00,15.78620978,0.0003543,53.2173,5.6276,5.1347,115.5786,-0.0075938999999999,-0.01202671,0.0,0 STARLINK-4268,1 53183U 22083BD  22206.91667824 -.01202671  00000-0 -75939-2 0  9996,2 53183  53.2173   5.6276 0003543   5.1347 115.5786 15.78620978  1304,6712.484,91.219,336.727,331.971,0.0
53183.0,STARLINK-4268,PAYLOAD,2022-07-26 04:00:01,15.7796486,0.0003661,53.2174,4.3793,3.0422,99.0166,-0.0078603,-0.01207732,0.0,0 STARLINK-4268,1 53183U 22083BD  22207.16668981 -.01207732  00000-0 -78603-2 0  9993,2 53183  53.2174   4.3793 0003661   3.0422  99.0166 15.77964860  2003,6714.345,91.257,338.668,333.751,0.0
53183.0,STARLINK-4268,PAYLOAD,2022-07-26 14:00:01,15.76868619,0.0003778,53.2174,2.305,359.7114,309.7593,-0.0082814,-0.01210787,0.0,0 STARLINK-4268,1 53183U 22083BD  22207.58334491 -.01210787  00000-0 -82814-2 0  9998,2 53183  53.2174   2.3050 0003778 359.7114 309.7593 15.76868619  1306,6717.456,91.32,341.8590000000001,336.783,0.0
53183.0,STARLINK-4268,PAYLOAD,2022-07-26 20:00:01,15.76209328,0.0003861,53.2174,1.0631,1.025,288.1403,-0.0085232,-0.01210105,0.0,0 STARLINK-4268,1 53183U 22083BD  22207.83334491 -.01210105  00000-0 -85232-2 0  9997,2 53183  53.2174   1.0631 0003861   1.0250 288.1403 15.76209328  2103,6719.329000000002,91.358,343.788,338.6,0.0
53183.0,STARLINK-4268,PAYLOAD,2022-07-26 22:00:00,15.75991433,0.0002251999999999,53.2171,0.6488,345.7493,56.5149,-0.0086211,-0.01210928,0.0,0 STARLINK-4268,1 53183U 22083BD  22207.91667824 -.01210928  00000-0 -86211-2 0  9996,2 53183  53.2171   0.6488 0002252 345.7493  56.5149 15.75991433  1304,6719.948,91.371,343.327,340.3,0.0
53183.0,STARLINK-4268,PAYLOAD,2022-07-27 14:00:01,15.74105307,0.0005537,53.2177,357.3393,325.3009,259.4123,-0.0067357,-0.00887751,0.0,0 STARLINK-4268,1 53183U 22083BD  22208.58334491 -.00887751  00000-0 -67357-2 0  9994,2 53183  53.2177 357.3393 0005537 325.3009 259.4123 15.74105307  1305,6725.315,91.481,350.904,343.457,0.0
53183.0,STARLINK-4268,PAYLOAD,2022-07-27 22:00:00,15.73323557,0.0005974999999999,53.2172,355.6893,341.3852,332.9615,-0.001328,-0.00184204,0.0,0 STARLINK-4268,1 53183U 22083BD  22208.91667824 -.00184204  00000-0 -13280-2 0  9999,2 53183  53.2172 355.6893 0005975 341.3852 332.9615 15.73323557  2274,6727.543000000002,91.526,353.42800000000005,345.38800000000015,0.0
53183.0,STARLINK-4268,PAYLOAD,2022-07-28 06:00:00,15.73307825,0.0002588,53.2175,354.0377,276.6767,126.5785,-0.00073453,-0.0010295,0.0,0 STARLINK-4268,1 53183U 22083BD  22209.25001157 -.00102950  00000-0 -73453-3 0  9995,2 53183  53.2175 354.0377 0002588 276.6767 126.5785 15.73307825  2320,6727.5880000000025,91.527,351.194,347.712,0.0
53183.0,STARLINK-4268,PAYLOAD,2022-07-28 14:00:01,15.7329244,0.0002431,53.2182,352.3901,282.7618,209.5407,-0.00076566,-0.0010716,0.0,0 STARLINK-4268,1 53183U 22083BD  22209.58334491 -.00107160  00000-0 -76566-3 0  9997,2 53183  53.2182 352.3901 0002431 282.7618 209.5407 15.73292440  1308,6727.632,91.528,351.13199999999995,347.861,0.0
53183.0,STARLINK-4268,PAYLOAD,2022-07-28 22:00:00,15.73235576,0.0002318,53.2181,350.741,289.5227,291.7678,-0.00015255,-0.0002201,0.0,0 STARLINK-4268,1 53183U 22083BD  22209.91667824 -.00022010  00000-0 -15255-3 0  9991,2 53183  53.2181 350.7410 0002318 289.5227 291.7678 15.73235576  2434,6727.794,91.531,351.218,348.099,0.0
53183.0,STARLINK-4268,PAYLOAD,2022-07-29 14:00:01,15.73229675,0.000202,53.2187,347.4414,296.7544,102.3918,-0.00044393,-0.00062546,0.0,0 STARLINK-4268,1 53183U 22083BD  22210.58334491 -.00062546  00000-0 -44393-3 0  9990,2 53183  53.2187 347.4414 0002020 296.7544 102.3918 15.73229675  1301,6727.811,91.531,351.035,348.31699999999995,0.0
53183.0,STARLINK-4268,PAYLOAD,2022-07-29 20:00:01,15.73171232,0.0002038,53.2184,346.2053,302.5581,73.29899999999998,5.2275e-06,1.12e-06,0.0,0 STARLINK-4268,1 53183U 22083BD  22210.83334491  .00000112  00000-0  52275-5 0  9997,2 53183  53.2184 346.2053 0002038 302.5581  73.2990 15.73171232  2571,6727.977,91.535,351.213,348.471,0.0
53183.0,STARLINK-4268,PAYLOAD,2022-07-29 22:00:00,15.73168637,0.0002039,53.2182,345.7925,302.9565,185.1265,5.9341e-06,2.11e-06,0.0,0 STARLINK-4268,1 53183U 22083BD  22210.91667824  .00000211  00000-0  59341-5 0  9996,2 53183  53.2182 345.7925 0002039 302.9565 185.1265 15.73168637  1301,6727.985,91.535,351.221,348.478,0.0
53183.0,STARLINK-4268,PAYLOAD,2022-07-30 12:00:00,15.73203676,0.0001896,53.2175,342.9038,296.1348,257.513,9.5564e-06,7.21e-06,0.0,0 STARLINK-4268,1 53183U 22083BD  22211.50001157  .00000721  00000-0  95564-5 0  9996,2 53183  53.2175 342.9038 0001896 296.1348 257.5130 15.73203676  2680,6727.885,91.533,351.025,348.474,0.0
53183.0,STARLINK-4268,PAYLOAD,2022-07-30 14:00:01,15.73203258,0.0001918,53.2173,342.4921,298.1632,7.7179,1.537e-05,1.537e-05,0.0,0 STARLINK-4268,1 53183U 22083BD  22211.58334491  .00001537  00000-0  15370-4 0  9996,2 53183  53.2173 342.4921 0001918 298.1632   7.7179 15.73203258  1309,6727.886,91.533,351.041,348.46,0.0
53183.0,STARLINK-4268,PAYLOAD,2022-07-30 20:00:01,15.73182989,0.0002154999999999,53.2186,341.2573,308.2943,334.4,0.00052325,0.00073409,0.0,0 STARLINK-4268,1 53183U 22083BD  22211.83334491  .00073409  00000-0  52325-3 0  9991,2 53183  53.2186 341.2573 0002155 308.2943 334.4000 15.73182989  2733,6727.944,91.534,351.259,348.3590000000001,0.0
53183.0,STARLINK-4268,PAYLOAD,2022-07-30 22:00:00,15.73214387,0.0002137,53.2184,340.8444,308.753,86.1658,0.0001727,0.00023701,0.0,0 STARLINK-4268,1 53183U 22083BD  22211.91667824  .00023701  00000-0  17270-3 0  9999,2 53183  53.2184 340.8444 0002137 308.7530  86.1658 15.73214387  1300,6727.854,91.532,351.157,348.281,0.0
53183.0,STARLINK-4268,PAYLOAD,2022-07-31 06:00:02,15.73235401,0.0001935,53.2188,339.1930000000001,307.1564,176.7885,-0.00020854,-0.00029831,0.0,0 STARLINK-4268,1 53183U 22083BD  22212.25002315 -.00029831  00000-0 -20854-3 0  9999,2 53183  53.2188 339.1930 0001935 307.1564 176.7885 15.73235401  2804,6727.794,91.531,350.961,348.357,0.0
